TEVEL2-2                
1 63219U 25052K   26068.64848259  .00020339  00000+0  69428-3 0  9991
2 63219  97.3987 324.7700 0004693 105.7930 254.3828 15.30343745 54855
STARLINK-34557          
1 64726U 25144C   26068.63156197  .00043723  00000+0  14798-2 0  9990
2 64726  53.1600 181.2678 0001265  65.2242 294.8891 15.30196866 39705
